{"type": "FeatureCollection", "features": [ {"type": "Feature", "properties": {"norad_id": 30081, "name": "FENGYUN 1C DEB", "group": "fengyun-1c-debris", "lat": 53.49235995998653, "lon": -16.04333232817679, "alt_km": 915.8537380828484, "timestamp": "2025-12-26T07:29:18.729342+00:00", "meta": {"OBJECT_NAME": "FENGYUN 1C DEB", "OBJECT_ID": "1999-025QJ", "EPOCH": "2025-12-25T22:54:02.620800", "MEAN_MOTION": 13.98295325, "ECCENTRICITY": 0.00756967, "INCLINATION": 98.9241, "RA_OF_ASC_NODE": 355.8648, "ARG_OF_PERICENTER": 302.4324, "MEAN_ANOMALY": 111.027, "EPHEMERIS_TYPE": 0, "CLASSIFICATION_TYPE": "U", "NORAD_CAT_ID": 30081, "ELEMENT_SET_NO": 999, "REV_AT_EPOCH": 96539, "BSTAR": 0.00028563525, "MEAN_MOTION_DOT": 3.74e-06, "MEAN_MOTION_DDOT": 0}, "tle": {"line1": "1 30081U 99025QJ  25359.95419700  .00000374  00000+0  28564-3 0  9997", "line2": "2 30081  98.9241 355.8648 0075696 302.4324 111.0270 13.98295325965398"}}, "geometry": {"type": "Point", "coordinates": [-16.04333232817679, 53.49235995998653]}}, {"type": "Feature", "properties": {"norad_id": 30082, "name": "FENGYUN 1C DEB", "group": "fengyun-1c-debris", "lat": -71.03308735521868, "lon": 83.36652433156578, "alt_km": 558.2917295766765, "timestamp": "2025-12-26T07:29:18.729352+00:00", "meta": {"OBJECT_NAME": "FENGYUN 1C DEB", "OBJECT_ID": "1999-025QK", "EPOCH": "2025-12-25T19:17:24.204768", "MEAN_MOTION": 15.1569384, "ECCENTRICITY": 0.0070472, "INCLINATION": 98.8192, "RA_OF_ASC_NODE": 289.6331, "ARG_OF_PERICENTER": 122.9575, "MEAN_ANOMALY": 237.8456, "EPHEMERIS_TYPE": 0, "CLASSIFICATION_TYPE": "U", "NORAD_CAT_ID": 30082, "ELEMENT_SET_NO": 999, "REV_AT_EPOCH": 1491, "BSTAR": 0.001251905, "MEAN_MOTION_DOT": 0.0002537, "MEAN_MOTION_DDOT": 0}, "tle": {"line1": "1 30082U 99025QK  25359.80375237  .00025370  00000+0  12519-2 0  9993", "line2": "2 30082  98.8192 289.6331 0070472 122.9575 237.8456 15.15693840 14917"}}, "geometry": {"type": "Point", "coordinates": [83.36652433156578, -71.03308735521868]}}, {"type": "Feature", "properties": {"norad_id": 30086, "name": "FENGYUN 1C DEB", "group": "fengyun-1c-debris", "lat": 64.87004391071078, "lon": -126.7383353255233, "alt_km": 830.9921082908741, "timestamp": "2025-12-26T07:29:18.729362+00:00", "meta": {"OBJECT_NAME": "FENGYUN 1C DEB", "OBJECT_ID": "1999-025QP", "EPOCH": "2025-12-24T16:11:36.413664", "MEAN_MOTION": 14.03846128, "ECCENTRICITY": 0.00619626, "INCLINATION": 98.9095, "RA_OF_ASC_NODE": 32.1202, "ARG_OF_PERICENTER": 101.5486, "MEAN_ANOMALY": 21.7218, "EPHEMERIS_TYPE": 0, "CLASSIFICATION_TYPE": "U", "NORAD_CAT_ID": 30086, "ELEMENT_SET_NO": 999, "REV_AT_EPOCH": 96863, "BSTAR": 0.00026731932, "MEAN_MOTION_DOT": 3.86e-06, "MEAN_MOTION_DDOT": 0}, "tle": {"line1": "1 30086U 99025QP  25358.67472701  .00000386  00000+0  26732-3 0  9998", "line2": "2 30086  98.9095  32.1202 0061962 101.5486  21.7218 14.03846128968638"}}, "geometry": {"type": "Point", "coordinates": [-126.7383353255233, 64.87004391071078]}}, {"type": "Feature", "properties": {"norad_id": 30087, "name": "FENGYUN 1C DEB", "group": "fengyun-1c-debris", "lat": 43.281451734374734, "lon": -139.83684353301857, "alt_km": 672.1190230489383, "timestamp": "2025-12-26T07:29:18.729373+00:00", "meta": {"OBJECT_NAME": "FENGYUN 1C DEB", "OBJECT_ID": "1999-025QQ", "EPOCH": "2025-12-25T00:54:38.130912", "MEAN_MOTION": 14.35726367, "ECCENTRICITY": 0.02303542, "INCLINATION": 98.379, "RA_OF_ASC_NODE": 30.9455, "ARG_OF_PERICENTER": 84.8069, "MEAN_ANOMALY": 307.6692, "EPHEMERIS_TYPE": 0, "CLASSIFICATION_TYPE": "U", "NORAD_CAT_ID": 30087, "ELEMENT_SET_NO": 999, "REV_AT_EPOCH": 98872, "BSTAR": 0.00025505361, "MEAN_MOTION_DOT": 9.49e-06, "MEAN_MOTION_DDOT": 0}, "tle": {"line1": "1 30087U 99025QQ  25359.03794133  .00000949  00000+0  25505-3 0  9998", "line2": "2 30087  98.3790  30.9455 0230354  84.8069 307.6692 14.35726367988725"}}, "geometry": {"type": "Point", "coordinates": [-139.83684353301857, 43.281451734374734]}}, {"type": "Feature", "properties": {"norad_id": 30088, "name": "FENGYUN 1C DEB", "group": "fengyun-1c-debris", "lat": 40.87360865513899, "lon": -23.122725497979875, "alt_km": 907.5569074557479, "timestamp": "2025-12-26T07:29:18.729383+00:00", "meta": {"OBJECT_NAME": "FENGYUN 1C DEB", "OBJECT_ID": "1999-025QR", "EPOCH": "2025-12-25T21:32:13.807392", "MEAN_MOTION": 14.35938658, "ECCENTRICITY": 0.02011211, "INCLINATION": 98.3556, "RA_OF_ASC_NODE": 343.7824, "ARG_OF_PERICENTER": 207.9426, "MEAN_ANOMALY": 211.9505, "EPHEMERIS_TYPE": 0, "CLASSIFICATION_TYPE": "U", "NORAD_CAT_ID": 30088, "ELEMENT_SET_NO": 999, "REV_AT_EPOCH": 98861, "BSTAR": 0.00026067618, "MEAN_MOTION_DOT": 9.03e-06, "MEAN_MOTION_DDOT": 0}, "tle": {"line1": "1 30088U 99025QR  25359.89738203  .00000903  00000+0  26068-3 0  9994", "line2": "2 30088  98.3556 343.7824 0201121 207.9426 211.9505 14.35938658988612"}}, "geometry": {"type": "Point", "coordinates": [-23.122725497979875, 40.87360865513899]}}, {"type": "Feature", "properties": {"norad_id": 30089, "name": "FENGYUN 1C DEB", "group": "fengyun-1c-debris", "lat": 19.091036518752286, "lon": 89.131682149554, "alt_km": 738.5552107802832, "timestamp": "2025-12-26T07:29:18.729393+00:00", "meta": {"OBJECT_NAME": "FENGYUN 1C DEB", "OBJECT_ID": "1999-025QS", "EPOCH": "2025-12-25T17:37:01.038720", "MEAN_MOTION": 14.30320494, "ECCENTRICITY": 0.0073902, "INCLINATION": 98.9037, "RA_OF_ASC_NODE": 265.4302, "ARG_OF_PERICENTER": 171.8942, "MEAN_ANOMALY": 254.3674, "EPHEMERIS_TYPE": 0, "CLASSIFICATION_TYPE": "U", "NORAD_CAT_ID": 30089, "ELEMENT_SET_NO": 999, "REV_AT_EPOCH": 98665, "BSTAR": 0.00022532866, "MEAN_MOTION_DOT": 5.56e-06, "MEAN_MOTION_DDOT": 0}, "tle": {"line1": "1 30089U 99025QS  25359.73403980  .00000556  00000+0  22533-3 0  9996", "line2": "2 30089  98.9037 265.4302 0073902 171.8942 254.3674 14.30320494986658"}}, "geometry": {"type": "Point", "coordinates": [89.131682149554, 19.091036518752286]}}, {"type": "Feature", "properties": {"norad_id": 30090, "name": "FENGYUN 1C DEB", "group": "fengyun-1c-debris", "lat": -7.22011689374786, "lon": 175.6719951187117, "alt_km": 791.529470455509, "timestamp": "2025-12-26T07:29:18.729404+00:00", "meta": {"OBJECT_NAME": "FENGYUN 1C DEB", "OBJECT_ID": "1999-025QT", "EPOCH": "2025-12-25T00:11:43.234656", "MEAN_MOTION": 14.29051997, "ECCENTRICITY": 0.00581428, "INCLINATION": 99.4091, "RA_OF_ASC_NODE": 173.0623, "ARG_OF_PERICENTER": 76.9734, "MEAN_ANOMALY": 52.2674, "EPHEMERIS_TYPE": 0, "CLASSIFICATION_TYPE": "U", "NORAD_CAT_ID": 30090, "ELEMENT_SET_NO": 999, "REV_AT_EPOCH": 98445, "BSTAR": 0.0003608463, "MEAN_MOTION_DOT": 8.8e-06, "MEAN_MOTION_DDOT": 0}, "tle": {"line1": "1 30090U 99025QT  25359.00813929  .00000880  00000+0  36085-3 0  9993", "line2": "2 30090  99.4091 173.0623 0058142  76.9734  52.2674 14.29051997984457"}}, "geometry": {"type": "Point", "coordinates": [175.6719951187117, -7.22011689374786]}}, {"type": "Feature", "properties": {"norad_id": 30092, "name": "FENGYUN 1C DEB", "group": "fengyun-1c-debris", "lat": 79.96041757935778, "lon": 117.56650144429041, "alt_km": 787.1073899143321, "timestamp": "2025-12-26T07:29:18.729414+00:00", "meta": {"OBJECT_NAME": "FENGYUN 1C DEB", "OBJECT_ID": "1999-025QV", "EPOCH": "2025-12-25T11:19:11.068032", "MEAN_MOTION": 14.39183639, "ECCENTRICITY": 0.0082827, "INCLINATION": 98.923, "RA_OF_ASC_NODE": 179.2437, "ARG_OF_PERICENTER": 212.5843, "MEAN_ANOMALY": 202.0855, "EPHEMERIS_TYPE": 0, "CLASSIFICATION_TYPE": "U", "NORAD_CAT_ID": 30092, "ELEMENT_SET_NO": 999, "REV_AT_EPOCH": 98932, "BSTAR": 0.00057677, "MEAN_MOTION_DOT": 1.811e-05, "MEAN_MOTION_DDOT": 0}, "tle": {"line1": "1 30092U 99025QV  25359.47165588  .00001811  00000+0  57677-3 0  9992", "line2": "2 30092  98.9230 179.2437 0082827 212.5843 202.0855 14.39183639989322"}}, "geometry": {"type": "Point", "coordinates": [117.56650144429041, 79.96041757935778]}}, {"type": "Feature", "properties": {"norad_id": 30093, "name": "FENGYUN 1C DEB", "group": "fengyun-1c-debris", "lat": 17.772874343677763, "lon": 58.31785347618249, "alt_km": 781.3864718917093, "timestamp": "2025-12-26T07:29:18.729424+00:00", "meta": {"OBJECT_NAME": "FENGYUN 1C DEB", "OBJECT_ID": "1999-025QW", "EPOCH": "2025-12-25T15:49:57.247104", "MEAN_MOTION": 14.43766422, "ECCENTRICITY": 0.0069401, "INCLINATION": 98.8669, "RA_OF_ASC_NODE": 234.7704, "ARG_OF_PERICENTER": 299.0888, "MEAN_ANOMALY": 74.7738, "EPHEMERIS_TYPE": 0, "CLASSIFICATION_TYPE": "U", "NORAD_CAT_ID": 30093, "ELEMENT_SET_NO": 999, "REV_AT_EPOCH": 98990, "BSTAR": 0.00093275, "MEAN_MOTION_DOT": 3.218e-05, "MEAN_MOTION_DDOT": 0}, "tle": {"line1": "1 30093U 99025QW  25359.65969036  .00003218  00000+0  93275-3 0  9990", "line2": "2 30093  98.8669 234.7704 0069401 299.0888  74.7738 14.43766422989904"}}, "geometry": {"type": "Point", "coordinates": [58.31785347618249, 17.772874343677763]}}, {"type": "Feature", "properties": {"norad_id": 30095, "name": "FENGYUN 1C DEB", "group": "fengyun-1c-debris", "lat": 1.5965426697387666, "lon": -76.76294965143381, "alt_km": 587.1642876370961, "timestamp": "2025-12-26T07:29:18.729435+00:00", "meta": {"OBJECT_NAME": "FENGYUN 1C DEB", "OBJECT_ID": "1999-025QY", "EPOCH": "2025-12-25T05:33:49.693824", "MEAN_MOTION": 14.82461988, "ECCENTRICITY": 0.0163486, "INCLINATION": 99.2209, "RA_OF_ASC_NODE": 282.2522, "ARG_OF_PERICENTER": 293.1265, "MEAN_ANOMALY": 65.2788, "EPHEMERIS_TYPE": 0, "CLASSIFICATION_TYPE": "U", "NORAD_CAT_ID": 30095, "ELEMENT_SET_NO": 999, "REV_AT_EPOCH": 99520, "BSTAR": 0.0019546, "MEAN_MOTION_DOT": 0.00019787, "MEAN_MOTION_DDOT": 0}, "tle": {"line1": "1 30095U 99025QY  25359.23182516  .00019787  00000+0  19546-2 0  9992", "line2": "2 30095  99.2209 282.2522 0163486 293.1265  65.2788 14.82461988995201"}}, "geometry": {"type": "Point", "coordinates": [-76.76294965143381, 1.5965426697387666]}}]}